{"type": "FeatureCollection", "features": [ {"type": "Feature", "properties": {"norad_id": 66911, "name": "1998-067XX", "group": "stations", "lat": 13.540797504460409, "lon": 109.86954846786907, "alt_km": 407.60597802554184, "timestamp": "2025-12-21T11:31:41.586711+00:00", "meta": {"OBJECT_NAME": "1998-067XX", "OBJECT_ID": "1998-067XX", "EPOCH": "2025-12-21T00:38:37.983264", "MEAN_MOTION": 15.53092393, "ECCENTRICITY": 0.0003884, "INCLINATION": 51.6313, "RA_OF_ASC_NODE": 101.1286, "ARG_OF_PERICENTER": 257.9049, "MEAN_ANOMALY": 102.1506, "EPHEMERIS_TYPE": 0, "CLASSIFICATION_TYPE": "U", "NORAD_CAT_ID": 66911, "ELEMENT_SET_NO": 999, "REV_AT_EPOCH": 289, "BSTAR": 0.00083173, "MEAN_MOTION_DOT": 0.00052914, "MEAN_MOTION_DDOT": 0}, "tle": {"line1": "1 66911U 98067XX  25355.02682851  .00052914  00000+0  83173-3 0  9990", "line2": "2 66911  51.6313 101.1286 0003884 257.9049 102.1506 15.53092393  2896"}}, "geometry": {"type": "Point", "coordinates": [109.86954846786907, 13.540797504460409]}}, {"type": "Feature", "properties": {"norad_id": 66912, "name": "1998-067XY", "group": "stations", "lat": -28.70451529019643, "lon": 73.26917632209197, "alt_km": 413.1149057376033, "timestamp": "2025-12-21T11:31:41.586724+00:00", "meta": {"OBJECT_NAME": "1998-067XY", "OBJECT_ID": "1998-067XY", "EPOCH": "2025-12-19T14:52:14.043072", "MEAN_MOTION": 15.51780846, "ECCENTRICITY": 0.0004012, "INCLINATION": 51.6307, "RA_OF_ASC_NODE": 108.231, "ARG_OF_PERICENTER": 260.881, "MEAN_ANOMALY": 99.1725, "EPHEMERIS_TYPE": 0, "CLASSIFICATION_TYPE": "U", "NORAD_CAT_ID": 66912, "ELEMENT_SET_NO": 999, "REV_AT_EPOCH": 267, "BSTAR": 0.00063264, "MEAN_MOTION_DOT": 0.00038197, "MEAN_MOTION_DDOT": 0}, "tle": {"line1": "1 66912U 98067XY  25353.61960698  .00038197  00000+0  63264-3 0  9998", "line2": "2 66912  51.6307 108.2310 0004012 260.8810  99.1725 15.51780846  2678"}}, "geometry": {"type": "Point", "coordinates": [73.26917632209197, -28.70451529019643]}}]}